{"type": "FeatureCollection", "features": [ {"type": "Feature", "properties": {"norad_id": 66949, "name": "STARLINK-36096", "group": "last-30-days", "lat": 39.55522465869435, "lon": 18.820765089282293, "alt_km": 398.86066133200256, "timestamp": "2025-12-26T18:39:30.999136+00:00", "meta": {"OBJECT_NAME": "STARLINK-36096", "OBJECT_ID": "2025-286AA", "EPOCH": "2025-12-26T14:00:04.000032", "MEAN_MOTION": 15.5503057, "ECCENTRICITY": 0.00010143, "INCLINATION": 53.1591, "RA_OF_ASC_NODE": 341.4943, "ARG_OF_PERICENTER": 82.2158, "MEAN_ANOMALY": 323.899, "EPHEMERIS_TYPE": 0, "CLASSIFICATION_TYPE": "U", "NORAD_CAT_ID": 66949, "ELEMENT_SET_NO": 999, "REV_AT_EPOCH": 421, "BSTAR": -0.034054275, "MEAN_MOTION_DOT": -0.020733, "MEAN_MOTION_DDOT": 0}, "tle": {"line1": "1 66949U 25286AA  25360.58337963 -.02073300  00000+0 -34054-1 0  9990", "line2": "2 66949  53.1591 341.4943 0001014  82.2158 323.8990 15.55030570  4212"}}, "geometry": {"type": "Point", "coordinates": [18.820765089282293, 39.55522465869435]}}, {"type": "Feature", "properties": {"norad_id": 66950, "name": "STARLINK-36111", "group": "last-30-days", "lat": 41.899203800823024, "lon": 22.826150611814004, "alt_km": 398.3640690405955, "timestamp": "2025-12-26T18:39:30.999147+00:00", "meta": {"OBJECT_NAME": "STARLINK-36111", "OBJECT_ID": "2025-286AB", "EPOCH": "2025-12-26T14:00:04.000032", "MEAN_MOTION": 15.55025009, "ECCENTRICITY": 0.00011439, "INCLINATION": 53.1591, "RA_OF_ASC_NODE": 341.4866, "ARG_OF_PERICENTER": 74.9913, "MEAN_ANOMALY": 334.958, "EPHEMERIS_TYPE": 0, "CLASSIFICATION_TYPE": "U", "NORAD_CAT_ID": 66950, "ELEMENT_SET_NO": 999, "REV_AT_EPOCH": 421, "BSTAR": -0.033887705, "MEAN_MOTION_DOT": -0.02063958, "MEAN_MOTION_DDOT": 0}, "tle": {"line1": "1 66950U 25286AB  25360.58337963 -.02063958  00000+0 -33888-1 0  9994", "line2": "2 66950  53.1591 341.4866 0001143  74.9913 334.9580 15.55025009  4217"}}, "geometry": {"type": "Point", "coordinates": [22.826150611814004, 41.899203800823024]}}, {"type": "Feature", "properties": {"norad_id": 66951, "name": "STARLINK-35999", "group": "last-30-days", "lat": 43.015850052567394, "lon": 24.937149307609058, "alt_km": 398.4452241806557, "timestamp": "2025-12-26T18:39:30.999157+00:00", "meta": {"OBJECT_NAME": "STARLINK-35999", "OBJECT_ID": "2025-286AC", "EPOCH": "2025-12-26T14:00:04.000032", "MEAN_MOTION": 15.55026015, "ECCENTRICITY": 9.099e-05, "INCLINATION": 53.1589, "RA_OF_ASC_NODE": 341.4823, "ARG_OF_PERICENTER": 96.8705, "MEAN_ANOMALY": 314.9963, "EPHEMERIS_TYPE": 0, "CLASSIFICATION_TYPE": "U", "NORAD_CAT_ID": 66951, "ELEMENT_SET_NO": 999, "REV_AT_EPOCH": 421, "BSTAR": -0.033880385, "MEAN_MOTION_DOT": -0.02063486, "MEAN_MOTION_DDOT": 0}, "tle": {"line1": "1 66951U 25286AC  25360.58337963 -.02063486  00000+0 -33880-1 0  9993", "line2": "2 66951  53.1589 341.4823 0000909  96.8705 314.9963 15.55026015  4210"}}, "geometry": {"type": "Point", "coordinates": [24.937149307609058, 43.015850052567394]}}, {"type": "Feature", "properties": {"norad_id": 66952, "name": "STARLINK-36122", "group": "last-30-days", "lat": 40.743467201605306, "lon": 20.78614366536116, "alt_km": 398.6505707838378, "timestamp": "2025-12-26T18:39:30.999169+00:00", "meta": {"OBJECT_NAME": "STARLINK-36122", "OBJECT_ID": "2025-286AD", "EPOCH": "2025-12-26T14:00:04.000032", "MEAN_MOTION": 15.5502074, "ECCENTRICITY": 0.00010836, "INCLINATION": 53.1591, "RA_OF_ASC_NODE": 341.4904, "ARG_OF_PERICENTER": 85.8188, "MEAN_ANOMALY": 322.216, "EPHEMERIS_TYPE": 0, "CLASSIFICATION_TYPE": "U", "NORAD_CAT_ID": 66952, "ELEMENT_SET_NO": 999, "REV_AT_EPOCH": 421, "BSTAR": -0.033788788, "MEAN_MOTION_DOT": -0.02058256, "MEAN_MOTION_DDOT": 0}, "tle": {"line1": "1 66952U 25286AD  25360.58337963 -.02058256  00000+0 -33789-1 0  9991", "line2": "2 66952  53.1591 341.4904 0001083  85.8188 322.2160 15.55020740  4211"}}, "geometry": {"type": "Point", "coordinates": [20.78614366536116, 40.743467201605306]}}, {"type": "Feature", "properties": {"norad_id": 66953, "name": "HULIANWANG DIGUI-114", "group": "last-30-days", "lat": 61.57382025001514, "lon": 154.55413274175322, "alt_km": 1002.6887902923427, "timestamp": "2025-12-26T18:39:30.999180+00:00", "meta": {"OBJECT_NAME": "HULIANWANG DIGUI-114", "OBJECT_ID": "2025-287A", "EPOCH": "2025-12-20T09:09:14.655168", "MEAN_MOTION": 13.66161866, "ECCENTRICITY": 0.00096738, "INCLINATION": 86.496, "RA_OF_ASC_NODE": 343.3747, "ARG_OF_PERICENTER": 185.0352, "MEAN_ANOMALY": 175.071, "EPHEMERIS_TYPE": 0, "CLASSIFICATION_TYPE": "U", "NORAD_CAT_ID": 66953, "ELEMENT_SET_NO": 999, "REV_AT_EPOCH": 157, "BSTAR": 3.033618e-06, "MEAN_MOTION_DOT": 1.9e-07, "MEAN_MOTION_DDOT": 0}, "tle": {"line1": "1 66953U 25287A   25354.38141962  .00000019  00000+0  30336-5 0  9995", "line2": "2 66953  86.4960 343.3747 0009673 185.0352 175.0710 13.66161866  1572"}}, "geometry": {"type": "Point", "coordinates": [154.55413274175322, 61.57382025001514]}}, {"type": "Feature", "properties": {"norad_id": 66954, "name": "HULIANWANG DIGUI-115", "group": "last-30-days", "lat": 86.18144025592957, "lon": 94.72580860672633, "alt_km": 1012.9460684368069, "timestamp": "2025-12-26T18:39:30.999191+00:00", "meta": {"OBJECT_NAME": "HULIANWANG DIGUI-115", "OBJECT_ID": "2025-287B", "EPOCH": "2025-12-24T22:10:56.489088", "MEAN_MOTION": 13.63539042, "ECCENTRICITY": 0.0003385, "INCLINATION": 86.5036, "RA_OF_ASC_NODE": 341.7372, "ARG_OF_PERICENTER": 109.9724, "MEAN_ANOMALY": 250.1798, "EPHEMERIS_TYPE": 0, "CLASSIFICATION_TYPE": "U", "NORAD_CAT_ID": 66954, "ELEMENT_SET_NO": 999, "REV_AT_EPOCH": 219, "BSTAR": 8.442119e-06, "MEAN_MOTION_DOT": 2.3e-07, "MEAN_MOTION_DDOT": 0}, "tle": {"line1": "1 66954U 25287B   25358.92426492  .00000023  00000+0  84421-5 0  9993", "line2": "2 66954  86.5036 341.7372 0003385 109.9724 250.1798 13.63539042  2198"}}, "geometry": {"type": "Point", "coordinates": [94.72580860672633, 86.18144025592957]}}, {"type": "Feature", "properties": {"norad_id": 66955, "name": "HULIANWANG DIGUI-116", "group": "last-30-days", "lat": 71.36145527878168, "lon": 150.56160158232407, "alt_km": 1012.5404899291143, "timestamp": "2025-12-26T18:39:30.999206+00:00", "meta": {"OBJECT_NAME": "HULIANWANG DIGUI-116", "OBJECT_ID": "2025-287C", "EPOCH": "2025-12-24T23:52:55.515936", "MEAN_MOTION": 13.64194122, "ECCENTRICITY": 0.00016332, "INCLINATION": 86.4919, "RA_OF_ASC_NODE": 341.6856, "ARG_OF_PERICENTER": 94.3011, "MEAN_ANOMALY": 265.8333, "EPHEMERIS_TYPE": 0, "CLASSIFICATION_TYPE": "U", "NORAD_CAT_ID": 66955, "ELEMENT_SET_NO": 999, "REV_AT_EPOCH": 220, "BSTAR": 0.0001652864, "MEAN_MOTION_DOT": 1.48e-06, "MEAN_MOTION_DDOT": 0}, "tle": {"line1": "1 66955U 25287C   25358.99508699  .00000148  00000+0  16529-3 0  9991", "line2": "2 66955  86.4919 341.6856 0001633  94.3011 265.8333 13.64194122  2201"}}, "geometry": {"type": "Point", "coordinates": [150.56160158232407, 71.36145527878168]}}, {"type": "Feature", "properties": {"norad_id": 66956, "name": "HULIANWANG DIGUI-117", "group": "last-30-days", "lat": 55.31429901881503, "lon": 155.97648384501116, "alt_km": 1012.8655587271505, "timestamp": "2025-12-26T18:39:30.999216+00:00", "meta": {"OBJECT_NAME": "HULIANWANG DIGUI-117", "OBJECT_ID": "2025-287D", "EPOCH": "2025-12-24T22:03:29.281824", "MEAN_MOTION": 13.64670553, "ECCENTRICITY": 0.00010447, "INCLINATION": 86.4976, "RA_OF_ASC_NODE": 341.7257, "ARG_OF_PERICENTER": 103.5815, "MEAN_ANOMALY": 256.5458, "EPHEMERIS_TYPE": 0, "CLASSIFICATION_TYPE": "U", "NORAD_CAT_ID": 66956, "ELEMENT_SET_NO": 999, "REV_AT_EPOCH": 219, "BSTAR": 9.025962e-06, "MEAN_MOTION_DOT": 2.4e-07, "MEAN_MOTION_DDOT": 0}, "tle": {"line1": "1 66956U 25287D   25358.91908891  .00000024  00000+0  90260-5 0  9991", "line2": "2 66956  86.4976 341.7257 0001044 103.5815 256.5458 13.64670553  2192"}}, "geometry": {"type": "Point", "coordinates": [155.97648384501116, 55.31429901881503]}}, {"type": "Feature", "properties": {"norad_id": 66957, "name": "HULIANWANG DIGUI-118", "group": "last-30-days", "lat": 5.671243251197761, "lon": 160.6919687231284, "alt_km": 1006.9098911011597, "timestamp": "2025-12-26T18:39:30.999228+00:00", "meta": {"OBJECT_NAME": "HULIANWANG DIGUI-118", "OBJECT_ID": "2025-287E", "EPOCH": "2025-12-21T00:50:13.849728", "MEAN_MOTION": 13.6751011, "ECCENTRICITY": 0.00054729, "INCLINATION": 86.4946, "RA_OF_ASC_NODE": 343.1304, "ARG_OF_PERICENTER": 170.9065, "MEAN_ANOMALY": 189.2194, "EPHEMERIS_TYPE": 0, "CLASSIFICATION_TYPE": "U", "NORAD_CAT_ID": 66957, "ELEMENT_SET_NO": 999, "REV_AT_EPOCH": 166, "BSTAR": 0.00013223305, "MEAN_MOTION_DOT": 1.28e-06, "MEAN_MOTION_DDOT": 0}, "tle": {"line1": "1 66957U 25287E   25355.03488252  .00000128  00000+0  13223-3 0  9993", "line2": "2 66957  86.4946 343.1304 0005472 170.9065 189.2194 13.67510110  1668"}}, "geometry": {"type": "Point", "coordinates": [160.6919687231284, 5.671243251197761]}}, {"type": "Feature", "properties": {"norad_id": 66958, "name": "CZ-6A R/B", "group": "last-30-days", "lat": 76.13122790174388, "lon": -4.911515175787974, "alt_km": 829.4596936641437, "timestamp": "2025-12-26T18:39:30.999239+00:00", "meta": {"OBJECT_NAME": "CZ-6A R/B", "OBJECT_ID": "2025-287F", "EPOCH": "2025-12-26T14:51:23.311584", "MEAN_MOTION": 13.94921806, "ECCENTRICITY": 0.01070747, "INCLINATION": 86.5066, "RA_OF_ASC_NODE": 340.8243, "ARG_OF_PERICENTER": 60.4306, "MEAN_ANOMALY": 300.7488, "EPHEMERIS_TYPE": 0, "CLASSIFICATION_TYPE": "U", "NORAD_CAT_ID": 66958, "ELEMENT_SET_NO": 999, "REV_AT_EPOCH": 247, "BSTAR": 7.1213941e-05, "MEAN_MOTION_DOT": 1.19e-06, "MEAN_MOTION_DDOT": 0}, "tle": {"line1": "1 66958U 25287F   25360.61901981  .00000119  00000+0  71214-4 0  9998", "line2": "2 66958  86.5066 340.8243 0107074  60.4306 300.7488 13.94921806  2475"}}, "geometry": {"type": "Point", "coordinates": [-4.911515175787974, 76.13122790174388]}}]}